KUIPER-00027            
1 63740U 25088S   25302.77534753  .00002983  00000+0  42382-3 0  9999
2 63740  51.9024 314.3496 0005336  86.0578 274.0994 14.79565523 28231
KUIPER-00028            
1 63741U 25088T   25302.72280187  .00002236  00000+0  32694-3 0  9990
2 63741  51.9011 312.5387 0004620 103.9532 256.1944 14.79320909 28661
KUIPER-00029            
1 63742U 25088U   25302.76574421  .00005345  00000+0  72885-3 0  9992
2 63742  51.9026 310.2897 0009309  56.6283 303.5569 14.79961277 28226
KUIPER-00030            
1 63743U 25088V   25302.77127010 -.00007263  00000+0 -92338-3 0  9990
2 63743  51.9010 329.4584 0014361 359.8242   0.2713 14.79897059 28242
KUIPER-00031            
1 63744U 25088W   25302.24556774  .00002955  00000+0  41631-3 0  9997
2 63744  51.9011 317.8563 0004988  37.6712 322.4599 14.79962494 28077
KUIPER-00032            
1 63745U 25088X   25302.69097686  .00016251  00000+0  53216-3 0  9995
2 63745  51.8734 294.8501 0006115  28.5319 331.6000 15.31791635 29437
KUIPER-00033            
1 63746U 25088Y   25302.82105174  .00004538  00000+0  62393-3 0  9994
2 63746  51.9010 345.2948 0003846 103.9091 256.2299 14.79934500 28224
KUIPER-00034            
1 63747U 25088Z   25302.70512955  .00003361  00000+0  46922-3 0  9994
2 63747  51.9018 308.0997 0002645  35.1405 324.9731 14.79977066 28414
